{
  "type": "FeatureCollection",
  "features": [
    {
      "type": "Feature",
      "properties": {
        "norad_id": 31236,
        "name": "FENGYUN 1C DEB",
        "group": "fengyun-1c-debris",
        "lat": 47.637158947538005,
        "lon": -63.64604963324098,
        "alt_km": 714.0011028070812,
        "timestamp": "2025-12-16T23:36:36.477837+00:00",
        "meta_object_name": "FENGYUN 1C DEB",
        "meta_object_id": "1999-025BLS",
        "meta_epoch": "2025-12-15T14:28:16.443840",
        "meta_mean_motion": 13.85886453,
        "meta_eccentricity": 0.03148164,
        "meta_inclination": 98.5449,
        "meta_ra_of_asc_node": 304.581,
        "meta_arg_of_pericenter": 38.9434,
        "meta_mean_anomaly": 323.3949,
        "meta_ephemeris_type": 0,
        "meta_classification_type": "U",
        "meta_norad_cat_id": 31236,
        "meta_element_set_no": 999,
        "meta_rev_at_epoch": 61064,
        "meta_bstar": 0.0038574177,
        "meta_mean_motion_dot": 6.499e-05,
        "meta_mean_motion_ddot": 0,
        "tle_line1": "1 31236U 99025BLS 25349.60296810  .00006499  00000+0  38574-2 0  9991",
        "tle_line2": "2 31236  98.5449 304.5810 0314816  38.9434 323.3949 13.85886453610642"
      },
      "geometry": {
        "type": "Point",
        "coordinates": [
          -63.64604963324098,
          47.637158947538005
        ]
      }
    },
    {
      "type": "Feature",
      "properties": {
        "norad_id": 31237,
        "name": "FENGYUN 1C DEB",
        "group": "fengyun-1c-debris",
        "lat": -49.033496556804714,
        "lon": -0.4038053152233479,
        "alt_km": 736.6391413787642,
        "timestamp": "2025-12-16T23:36:36.477847+00:00",
        "meta_object_name": "FENGYUN 1C DEB",
        "meta_object_id": "1999-025BLT",
        "meta_epoch": "2025-12-15T19:19:06.993984",
        "meta_mean_motion": 14.31399889,
        "meta_eccentricity": 0.00887814,
        "meta_inclination": 98.4534,
        "meta_ra_of_asc_node": 348.5865,
        "meta_arg_of_pericenter": 339.9002,
        "meta_mean_anomaly": 19.8693,
        "meta_ephemeris_type": 0,
        "meta_classification_type": "U",
        "meta_norad_cat_id": 31237,
        "meta_element_set_no": 999,
        "meta_rev_at_epoch": 97310,
        "meta_bstar": 0.00049074355,
        "meta_mean_motion_dot": 1.316e-05,
        "meta_mean_motion_ddot": 0,
        "tle_line1": "1 31237U 99025BLT 25349.80494206  .00001316  00000+0  49074-3 0  9994",
        "tle_line2": "2 31237  98.4534 348.5865 0088781 339.9002  19.8693 14.31399889973109"
      },
      "geometry": {
        "type": "Point",
        "coordinates": [
          -0.4038053152233479,
          -49.033496556804714
        ]
      }
    },
    {
      "type": "Feature",
      "properties": {
        "norad_id": 31239,
        "name": "FENGYUN 1C DEB",
        "group": "fengyun-1c-debris",
        "lat": 4.277582408439744,
        "lon": 166.47201593003388,
        "alt_km": 826.9410177870695,
        "timestamp": "2025-12-16T23:36:36.477857+00:00",
        "meta_object_name": "FENGYUN 1C DEB",
        "meta_object_id": "1999-025BLV",
        "meta_epoch": "2025-12-15T23:11:52.588032",
        "meta_mean_motion": 14.09865893,
        "meta_eccentricity": 0.00494462,
        "meta_inclination": 98.7582,
        "meta_ra_of_asc_node": 344.8215,
        "meta_arg_of_pericenter": 188.8601,
        "meta_mean_anomaly": 226.9856,
        "meta_ephemeris_type": 0,
        "meta_classification_type": "U",
        "meta_norad_cat_id": 31239,
        "meta_element_set_no": 999,
        "meta_rev_at_epoch": 96057,
        "meta_bstar": 0.00030726683,
        "meta_mean_motion_dot": 5.04e-06,
        "meta_mean_motion_ddot": 0,
        "tle_line1": "1 31239U 99025BLV 25349.96658088  .00000504  00000+0  30727-3 0  9996",
        "tle_line2": "2 31239  98.7582 344.8215 0049446 188.8601 226.9856 14.09865893960573"
      },
      "geometry": {
        "type": "Point",
        "coordinates": [
          166.47201593003388,
          4.277582408439744
        ]
      }
    },
    {
      "type": "Feature",
      "properties": {
        "norad_id": 31241,
        "name": "FENGYUN 1C DEB",
        "group": "fengyun-1c-debris",
        "lat": -80.7449278222953,
        "lon": -128.48985861116918,
        "alt_km": 778.6815821658365,
        "timestamp": "2025-12-16T23:36:36.477867+00:00",
        "meta_object_name": "FENGYUN 1C DEB",
        "meta_object_id": "1999-025BLX",
        "meta_epoch": "2025-12-14T08:36:30.410784",
        "meta_mean_motion": 14.38706808,
        "meta_eccentricity": 0.00668387,
        "meta_inclination": 99.2333,
        "meta_ra_of_asc_node": 135.3007,
        "meta_arg_of_pericenter": 176.3169,
        "meta_mean_anomaly": 183.8522,
        "meta_ephemeris_type": 0,
        "meta_classification_type": "U",
        "meta_norad_cat_id": 31241,
        "meta_element_set_no": 999,
        "meta_rev_at_epoch": 97714,
        "meta_bstar": 0.00079512814,
        "meta_mean_motion_dot": 2.454e-05,
        "meta_mean_motion_ddot": 0,
        "tle_line1": "1 31241U 99025BLX 25348.35868531  .00002454  00000+0  79513-3 0  9999",
        "tle_line2": "2 31241  99.2333 135.3007 0066838 176.3169 183.8522 14.38706808977147"
      },
      "geometry": {
        "type": "Point",
        "coordinates": [
          -128.48985861116918,
          -80.7449278222953
        ]
      }
    },
    {
      "type": "Feature",
      "properties": {
        "norad_id": 31243,
        "name": "FENGYUN 1C DEB",
        "group": "fengyun-1c-debris",
        "lat": 68.7001482678085,
        "lon": 7.84265236057766,
        "alt_km": 858.690950033003,
        "timestamp": "2025-12-16T23:36:36.477877+00:00",
        "meta_object_name": "FENGYUN 1C DEB",
        "meta_object_id": "1999-025BLZ",
        "meta_epoch": "2025-12-15T13:08:38.901408",
        "meta_mean_motion": 14.07176763,
        "meta_eccentricity": 0.00662412,
        "meta_inclination": 98.7502,
        "meta_ra_of_asc_node": 29.7205,
        "meta_arg_of_pericenter": 160.6206,
        "meta_mean_anomaly": 199.7504,
        "meta_ephemeris_type": 0,
        "meta_classification_type": "U",
        "meta_norad_cat_id": 31243,
        "meta_element_set_no": 999,
        "meta_rev_at_epoch": 69347,
        "meta_bstar": 0.0008746286,
        "meta_mean_motion_dot": 1.452e-05,
        "meta_mean_motion_ddot": 0,
        "tle_line1": "1 31243U 99025BLZ 25349.54767247  .00001452  00000+0  87463-3 0  9995",
        "tle_line2": "2 31243  98.7502  29.7205 0066241 160.6206 199.7504 14.07176763693477"
      },
      "geometry": {
        "type": "Point",
        "coordinates": [
          7.84265236057766,
          68.7001482678085
        ]
      }
    },
    {
      "type": "Feature",
      "properties": {
        "norad_id": 31244,
        "name": "FENGYUN 1C DEB",
        "group": "fengyun-1c-debris",
        "lat": 76.19247649451083,
        "lon": 14.237305621079246,
        "alt_km": 855.9220634894709,
        "timestamp": "2025-12-16T23:36:36.477887+00:00",
        "meta_object_name": "FENGYUN 1C DEB",
        "meta_object_id": "1999-025BMA",
        "meta_epoch": "2025-12-07T22:21:36.542016",
        "meta_mean_motion": 14.06237413,
        "meta_eccentricity": 0.01023168,
        "meta_inclination": 99.037,
        "meta_ra_of_asc_node": 45.5611,
        "meta_arg_of_pericenter": 188.335,
        "meta_mean_anomaly": 171.6122,
        "meta_ephemeris_type": 0,
        "meta_classification_type": "U",
        "meta_norad_cat_id": 31244,
        "meta_element_set_no": 999,
        "meta_rev_at_epoch": 57572,
        "meta_bstar": 0.00047777338,
        "meta_mean_motion_dot": 7.8e-06,
        "meta_mean_motion_ddot": 0,
        "tle_line1": "1 31244U 99025BMA 25341.93167294  .00000780  00000+0  47777-3 0  9994",
        "tle_line2": "2 31244  99.0370  45.5611 0102316 188.3350 171.6122 14.06237413575724"
      },
      "geometry": {
        "type": "Point",
        "coordinates": [
          14.237305621079246,
          76.19247649451083
        ]
      }
    },
    {
      "type": "Feature",
      "properties": {
        "norad_id": 31246,
        "name": "FENGYUN 1C DEB",
        "group": "fengyun-1c-debris",
        "lat": 5.436917251979056,
        "lon": -162.97686912641979,
        "alt_km": 780.9098379296547,
        "timestamp": "2025-12-16T23:36:36.477898+00:00",
        "meta_object_name": "FENGYUN 1C DEB",
        "meta_object_id": "1999-025BMC",
        "meta_epoch": "2025-12-12T08:40:07.558176",
        "meta_mean_motion": 14.07203108,
        "meta_eccentricity": 0.01486979,
        "meta_inclination": 98.8179,
        "meta_ra_of_asc_node": 193.3588,
        "meta_arg_of_pericenter": 344.8205,
        "meta_mean_anomaly": 14.8526,
        "meta_ephemeris_type": 0,
        "meta_classification_type": "U",
        "meta_norad_cat_id": 31246,
        "meta_element_set_no": 999,
        "meta_rev_at_epoch": 61747,
        "meta_bstar": 0.003171684,
        "meta_mean_motion_dot": 5.838e-05,
        "meta_mean_motion_ddot": 0,
        "tle_line1": "1 31246U 99025BMC 25346.36119859  .00005838  00000+0  31717-2 0  9997",
        "tle_line2": "2 31246  98.8179 193.3588 0148697 344.8205  14.8526 14.07203108617475"
      },
      "geometry": {
        "type": "Point",
        "coordinates": [
          -162.97686912641979,
          5.436917251979056
        ]
      }
    }
  ]
}